IRIDIUM 63              
1 25286U 98021B   25328.65824027  .00000441  00000+0  14299-3 0  9993
2 25286  86.4001  14.8011 0002405  95.5812 264.5659 14.36715378446882
IRIDIUM 69              
1 25319U 98026A   25328.66295347  .00000639  00000+0  19200-3 0  9999
2 25319  86.3997  27.5792 0002332 158.7446 201.3851 14.41188583446176
IRIDIUM 71              
1 25320U 98026B   25328.72049678  .00000353  00000+0  10321-3 0  9990
2 25320  86.3994  22.2294 0000177  37.7868 322.3344 14.41302395446713
IRIDIUM 73              
1 25344U 98032C   25328.58497404  .00000702  00000+0  16890-3 0  9996
2 25344  86.4406 338.7068 0002513 106.3443 253.8039 14.51953480453838
IRIDIUM 82              
1 25467U 98051A   25328.64939772  .00044237  00000+0  86805-3 0  9993
2 25467  86.3628  30.1998 0065950  44.9938 315.6634 15.44742918448606
